GSAT0101 (GALILEO-PFM)  
1 37846U 11060A   25314.05217831 -.00000086  00000+0  00000+0 0  9991
2 37846  57.0599 347.7077 0002115 300.3175  59.7122  1.70475577 87383
GSAT0102 (GALILEO-FM2)  
1 37847U 11060B   25314.04861240 -.00000086  00000+0  00000+0 0  9990
2 37847  57.0608 347.7082 0004118 300.9681 102.3154  1.70475766 87395
GSAT0103 (GALILEO-FM3)  
1 38857U 12055A   25312.91900734  .00000039  00000+0  00000+0 0  9990
2 38857  55.6719 107.5949 0001757 269.8686  90.0919  1.70473343 81252
GSAT0201 (GALILEO 5)    
1 40128U 14050A   25314.58846174 -.00000051  00000+0  00000+0 0  9998
2 40128  49.1139 282.3731 1644847 171.0626 192.2895  1.85519492 74266
GSAT0202 (GALILEO 6)    
1 40129U 14050B   25314.30584109 -.00000048  00000+0  00000+0 0  9992
2 40129  49.1302 281.4677 1645554 171.8094 191.2691  1.85520328 76424
GSAT0203 (GALILEO 7)    
1 40544U 15017A   25313.83035873 -.00000086  00000+0  00000+0 0  9995
2 40544  56.8537 347.5782 0006256 261.8594  98.1203  1.70475983 65461
GSAT0204 (GALILEO 8)    
1 40545U 15017B   25313.49916586 -.00000085  00000+0  00000+0 0  9996
2 40545  56.8602 347.6049 0006142 253.4972 106.4869  1.70475541 28508
GSAT0205 (GALILEO 9)    
1 40889U 15045A   25313.85404717 -.00000012  00000+0  00000+0 0  9996
2 40889  55.0159 227.6666 0005239  32.7242 327.3525  1.70472811 63276
GSAT0206 (GALILEO 10)   
1 40890U 15045B   25312.90152681 -.00000004  00000+0  00000+0 0  9994
2 40890  55.0154 227.6880 0003184  23.2937 336.7657  1.70472816 63280
GSAT0209 (GALILEO 12)   
1 41174U 15079A   25313.65651422  .00000040  00000+0  00000+0 0  9996
2 41174  55.6926 107.2889 0002470   9.1809 350.8049  1.70474225 61038
GSAT0208 (GALILEO 11)   
1 41175U 15079B   25314.46323788  .00000041  00000+0  00000+0 0  9999
2 41175  55.6916 107.2637 0002009  21.7893 338.2025  1.70474050 61467
GSAT0211 (GALILEO 14)   
1 41549U 16030A   25314.00043849 -.00000013  00000+0  00000+0 0  9999
2 41549  55.1646 227.7242 0003641 357.5922   2.4499  1.70472851 58933
GSAT0210 (GALILEO 13)   
1 41550U 16030B   25313.67135879 -.00000010  00000+0  00000+0 0  9995
2 41550  55.1642 227.7314 0001981 247.8967 112.1268  1.70473364 58928
GSAT0207 (GALILEO 15)   
1 41859U 16069A   25313.94984578  .00000039  00000+0  00000+0 0  9997
2 41859  55.3625 107.1579 0001955 340.3097  19.6647  1.70474185 55663
GSAT0212 (GALILEO 16)   
1 41860U 16069B   25314.39013628  .00000040  00000+0  00000+0 0  9990
2 41860  55.3601 107.1412 0002635  41.8924 318.1109  1.70474325 55928
GSAT0213 (GALILEO 17)   
1 41861U 16069C   25314.17116681  .00000040  00000+0  00000+0 0  9990
2 41861  55.3620 107.1548 0001602 290.6306  69.3347  1.70474641 55785
GSAT0214 (GALILEO 18)   
1 41862U 16069D   25314.90371964  .00000042  00000+0  00000+0 0  9991
2 41862  55.3612 107.1274 0000725 311.7139  48.2644  1.70474463 55921
GSAT0215 (GALILEO 19)   
1 43055U 17079A   25311.87415973  .00000002  00000+0  00000+0 0  9997
2 43055  55.1433 227.5974 0001783 301.8141  58.2119  1.70473599 49210
GSAT0216 (GALILEO 20)   
1 43056U 17079B   25313.92521926 -.00000012  00000+0  00000+0 0  9994
2 43056  55.1428 227.5410 0003199 301.2981  58.7150  1.70473757 49260
GSAT0217 (GALILEO 21)   
1 43057U 17079C   25314.14591842 -.00000014  00000+0  00000+0 0  9996
2 43057  55.1408 227.5330 0003022 324.3970  35.6268  1.70473664 49259
GSAT0218 (GALILEO 22)   
1 43058U 17079D   25312.60622404 -.00000002  00000+0  00000+0 0  9992
2 43058  55.1417 227.5730 0003552 293.9607  66.0471  1.70473704 49259
GSAT0221 (GALILEO 25)   
1 43564U 18060A   25314.26865941 -.00000087  00000+0  00000+0 0  9997
2 43564  57.2348 347.6955 0006253 273.8125  86.1662  1.70475814 45438
GSAT0222 (GALILEO 26)   
1 43565U 18060B   25313.90136047 -.00000086  00000+0  00000+0 0  9995
2 43565  57.2386 347.7085 0006051 253.7386 106.2458  1.70475629 45473
GSAT0219 (GALILEO 23)   
1 43566U 18060C   25312.94938086 -.00000083  00000+0  00000+0 0  9999
2 43566  57.2377 347.7359 0005346 277.7212  82.2719  1.70475812 45431
GSAT0220 (GALILEO 24)   
1 43567U 18060D   25314.34345892 -.00000087  00000+0  00000+0 0  9997
2 43567  57.2367 347.6977 0005783 275.0043  84.9798  1.70475674 45447
GSAT0223 (GALILEO 27)   
1 49809U 21116A   25313.05983772 -.00000083  00000+0  00000+0 0  9996
2 49809  57.2269 347.6236 0004699 237.1245 145.8080  1.70475768 24430
GSAT0224 (GALILEO 28)   
1 49810U 21116B   25314.06008507 -.00000086  00000+0  00000+0 0  9997
2 49810  57.2271 347.5950 0004002 242.2846 147.1057  1.70475816 24476
GSAT0225 (GALILEO 29)   
1 59598U 24079A   25312.26572641  .00000038  00000+0  00000+0 0  9993
2 59598  54.9796 107.2586 0002117 156.3254 204.1725  1.70474318  9559
GSAT0227 (GALILEO 30)   
1 59600U 24079C   25312.44831345  .00000037  00000+0  00000+0 0  9995
2 59600  54.9753 107.2530 0003887 109.1606 250.8620  1.70474487  9602
GSAT0232 (GALILEO 32)   
1 61182U 24167A   25314.05264567 -.00000013  00000+0  00000+0 0  9991
2 61182  55.2533 227.3276 0002891 227.1980 232.1406  1.70473151  7140
GSAT0226 (GALILEO 31)   
1 61183U 24167B   25313.41440170 -.00000008  00000+0  00000+0 0  9991
2 61183  55.2524 227.3505 0000715 203.1079 337.1726  1.70473206  7100
